{"type":"FeatureCollection","features":[{"type":"Feature","properties":{"rw":"БЕЛ","station_count":941,"centroid_lon":27.924362184202447,"centroid_lat":53.45319371742338,"centroid_source":"cis_filtered","label_lon":19.0,"label_lat":69.63194990842949},"geometry":{"type":"Polygon","coordinates":[[[32.1740108081966,55.47060718474971],[33.13432728390089,47.80030625796238],[25.341282566452758,35.0],[19.0,35.0],[19.0,69.63194990842949],[32.1740108081966,55.47060718474971]]]}},{"type":"Feature","properties":{"rw":"ВСБ","station_count":561,"centroid_lon":104.5222215888057,"centroid_lat":54.13387552481284,"centroid_source":"ru_filtered","label_lon":25.341282566452758,"label_lat":48.93510434008898},"geometry":{"type":"Polygon","coordinates":[[[33.13432728390089,47.80030625796238],[35.79002184776981,48.93510434008898],[42.45708680693185,48.799322061760535],[52.64045112110364,36.71755633088821],[52.305981268313644,35.0],[25.341282566452758,35.0],[33.13432728390089,47.80030625796238]]]}},{"type":"Feature","properties":{"rw":"ГОР","station_count":889,"centroid_lon":48.06701703467941,"centroid_lat":56.63615397589427,"centroid_source":"ru_filtered","label_lon":19.0,"label_lat":82.0},"geometry":{"type":"Polygon","coordinates":[[[39.65888501625643,58.90896540291829],[32.1740108081966,55.47060718474971],[19.0,69.63194990842949],[19.0,82.0],[36.519724296204565,82.0],[39.65888501625643,58.90896540291829]]]}},{"type":"Feature","properties":{"rw":"ДВС","station_count":520,"centroid_lon":134.66073704934615,"centroid_lat":49.57031058290384,"centroid_source":"ru_filtered","label_lon":32.1740108081966,"label_lat":58.90896540291829},"geometry":{"type":"Polygon","coordinates":[[[41.27708479531163,56.95545478901934],[35.79002184776981,48.93510434008898],[33.13432728390089,47.80030625796238],[32.1740108081966,55.47060718474971],[39.65888501625643,58.90896540291829],[41.27708479531163,56.95545478901934]]]}},{"type":"Feature","properties":{"rw":"ЗАБ","station_count":153,"centroid_lon":125.05728373477125,"centroid_lat":52.424759559019606,"centroid_source":"ru_filtered","label_lon":36.519724296204565,"label_lat":82.0},"geometry":{"type":"Polygon","coordinates":[[[53.9924205274308,65.28072098505352],[43.15929047966116,56.16407113441462],[41.27708479531163,56.95545478901934],[39.65888501625643,58.90896540291829],[36.519724296204565,82.0],[56.5231417091758,82.0],[53.9924205274308,65.28072098505352]]]}},{"type":"Feature","properties":{"rw":"ЗСБ","station_count":927,"centroid_lon":82.52833365364617,"centroid_lat":54.45563261811218,"centroid_source":"ru_filtered","label_lon":35.79002184776981,"label_lat":56.95545478901934},"geometry":{"type":"Polygon","coordinates":[[[41.27708479531163,56.95545478901934],[43.15929047966116,56.16407113441462],[44.017207984274954,53.37017886697622],[42.45708680693185,48.799322061760535],[35.79002184776981,48.93510434008898],[41.27708479531163,56.95545478901934]]]}},{"type":"Feature","properties":{"rw":"КБШ","station_count":826,"centroid_lon":47.64703922146245,"centroid_lat":53.75608288847826,"centroid_source":"ru_filtered","label_lon":64.16062683718161,"label_lat":42.456034742550045},"geometry":{"type":"Polygon","coordinates":[[[70.47217720744473,42.456034742550045],[75.43294114177354,35.0],[64.16062683718161,35.0],[70.47217720744473,42.456034742550045]]]}},{"type":"Feature","properties":{"rw":"КЗХ","station_count":865,"centroid_lon":65.36558844246194,"centroid_lat":49.030326997548556,"centroid_source":"cis_filtered","label_lon":42.45708680693185,"label_lat":53.37017886697622},"geometry":{"type":"Polygon","coordinates":[[[44.017207984274954,53.37017886697622],[54.00633169934024,48.14073060484332],[55.14467263414214,42.32072237288628],[52.64045112110364,36.71755633088821],[42.45708680693185,48.799322061760535],[44.017207984274954,53.37017886697622]]]}},{"type":"Feature","properties":{"rw":"КРГ","station_count":29,"centroid_lon":74.20867472724137,"centroid_lat":42.331405542068964,"centroid_source":"cis_filtered","label_lon":43.15929047966116,"label_lat":65.28072098505352},"geometry":{"type":"Polygon","coordinates":[[[53.9924205274308,65.28072098505352],[54.792323324065556,58.6529678872743],[53.860597308330014,54.320665785604504],[43.35889715664289,55.852045022747866],[43.15929047966116,56.16407113441462],[53.9924205274308,65.28072098505352]]]}},{"type":"Feature","properties":{"rw":"КРС","station_count":532,"centroid_lon":92.3955118919173,"centroid_lat":55.45583459334586,"centroid_source":"ru_filtered","label_lon":55.14467263414214,"label_lat":57.00606456399476},"geometry":{"type":"Polygon","coordinates":[[[55.2220657883158,43.654696700063624],[65.42315650360518,54.36886618886938],[72.28325032125761,57.00606456399476],[74.07427613445628,51.34022343938187],[69.68877109489964,45.551022935260114],[55.14467263414214,42.32072237288628],[55.2220657883158,43.654696700063624]]]}},{"type":"Feature","properties":{"rw":"МСК","station_count":1415,"centroid_lon":36.78985163221201,"centroid_lat":54.56314698566784,"centroid_source":"ru_filtered","label_lon":43.35889715664289,"label_lat":55.852045022747866},"geometry":{"type":"Polygon","coordinates":[[[43.35889715664289,55.852045022747866],[53.860597308330014,54.320665785604504],[54.00633169934024,48.14073060484332],[44.017207984274954,53.37017886697622],[43.35889715664289,55.852045022747866]]]}},{"type":"Feature","properties":{"rw":"ОКТ","station_count":1576,"centroid_lon":34.492755399409894,"centroid_lat":59.56363711944162,"centroid_source":"ru_filtered","label_lon":53.860597308330014,"label_lat":58.6529678872743},"geometry":{"type":"Polygon","coordinates":[[[54.00633169934024,48.14073060484332],[53.860597308330014,54.320665785604504],[54.792323324065556,58.6529678872743],[65.42315650360518,54.36886618886938],[55.2220657883158,43.654696700063624],[54.00633169934024,48.14073060484332]]]}},{"type":"Feature","properties":{"rw":"ПРВ","station_count":507,"centroid_lon":45.76826273980276,"centroid_lat":50.16730453796844,"centroid_source":"ru_filtered","label_lon":53.9924205274308,"label_lat":82.0},"geometry":{"type":"Polygon","coordinates":[[[72.28325032125761,57.00606456399476],[65.42315650360518,54.36886618886938],[54.792323324065556,58.6529678872743],[53.9924205274308,65.28072098505352],[56.5231417091758,82.0],[76.91260536931833,82.0],[72.28325032125761,57.00606456399476]]]}},{"type":"Feature","properties":{"rw":"СВР","station_count":956,"centroid_lon":61.804349053305444,"centroid_lat":58.29411107506276,"centroid_source":"ru_filtered","label_lon":52.305981268313644,"label_lat":45.551022935260114},"geometry":{"type":"Polygon","coordinates":[[[55.14467263414214,42.32072237288628],[69.68877109489964,45.551022935260114],[70.47217720744473,42.456034742550045],[64.16062683718161,35.0],[52.305981268313644,35.0],[55.14467263414214,42.32072237288628]]]}},{"type":"Feature","properties":{"rw":"СЕВ","station_count":807,"centroid_lon":44.46275130805452,"centroid_lat":60.91902981109046,"centroid_source":"ru_filtered","label_lon":84.7205383553624,"label_lat":82.0},"geometry":{"type":"Polygon","coordinates":[[[96.30098642412361,35.0],[93.32834631844176,35.0],[88.85664449154578,41.196544829264674],[84.7205383553624,82.0],[101.42455891609104,82.0],[96.30098642412361,35.0]]]}},{"type":"Feature","properties":{"rw":"СКВ","station_count":791,"centroid_lon":40.548281642541085,"centroid_lat":45.7675362912895,"centroid_source":"ru_filtered","label_lon":72.28325032125761,"label_lat":82.0},"geometry":{"type":"Polygon","coordinates":[[[72.28325032125761,57.00606456399476],[76.91260536931833,82.0],[84.7205383553624,82.0],[88.85664449154578,41.196544829264674],[74.07427613445628,51.34022343938187],[72.28325032125761,57.00606456399476]]]}},{"type":"Feature","properties":{"rw":"ТДЖ","station_count":32,"centroid_lon":69.143657446875,"centroid_lat":38.961470191875,"centroid_source":"cis_filtered","label_lon":69.68877109489964,"label_lat":51.34022343938187},"geometry":{"type":"Polygon","coordinates":[[[74.07427613445628,51.34022343938187],[88.85664449154578,41.196544829264674],[93.32834631844176,35.0],[75.43294114177354,35.0],[70.47217720744473,42.456034742550045],[69.68877109489964,45.551022935260114],[74.07427613445628,51.34022343938187]]]}},{"type":"Feature","properties":{"rw":"УЗБ","station_count":352,"centroid_lon":67.24493990869318,"centroid_lat":40.568738907073865,"centroid_source":"cis_filtered","label_lon":113.26838042377793,"label_lat":82.0},"geometry":{"type":"Polygon","coordinates":[[[125.10403880966142,35.0],[113.26838042377793,35.0],[117.18015092738285,82.0],[139.07392000581729,82.0],[125.10403880966142,35.0]]]}},{"type":"Feature","properties":{"rw":"ЮВС","station_count":757,"centroid_lon":40.673304706306915,"centroid_lat":51.9063115260371,"centroid_source":"ru_filtered","label_lon":96.30098642412361,"label_lat":82.0},"geometry":{"type":"Polygon","coordinates":[[[113.26838042377793,35.0],[96.30098642412361,35.0],[101.42455891609104,82.0],[117.18015092738285,82.0],[113.26838042377793,35.0]]]}},{"type":"Feature","properties":{"rw":"ЮУР","station_count":662,"centroid_lon":60.09386149788519,"centroid_lat":54.04960215873111,"centroid_source":"ru_filtered","label_lon":125.10403880966142,"label_lat":82.0},"geometry":{"type":"Polygon","coordinates":[[[139.07392000581729,82.0],[180.0,82.0],[180.0,35.0],[125.10403880966142,35.0],[139.07392000581729,82.0]]]}}]}